{
  "type": "FeatureCollection",
  "features": [
    {
      "type": "Feature",
      "properties": {
        "norad_id": 34121,
        "name": "COSMOS 2251 DEB",
        "group": "cosmos-2251-debris",
        "lat": 73.32803033118395,
        "lon": -172.4336683659997,
        "alt_km": 1087.5480129076586,
        "timestamp": "2025-12-22T04:03:39.562254+00:00",
        "meta_object_name": "COSMOS 2251 DEB",
        "meta_object_id": "1993-036KS",
        "meta_epoch": "2025-12-21T16:05:25.247904",
        "meta_mean_motion": 13.91959827,
        "meta_eccentricity": 0.0240866,
        "meta_inclination": 73.9924,
        "meta_ra_of_asc_node": 81.866,
        "meta_arg_of_pericenter": 285.4458,
        "meta_mean_anomaly": 190.319,
        "meta_ephemeris_type": 0,
        "meta_classification_type": "U",
        "meta_norad_cat_id": 34121,
        "meta_element_set_no": 999,
        "meta_rev_at_epoch": 85249,
        "meta_bstar": 0.00098028,
        "meta_mean_motion_dot": 1.559e-05,
        "meta_mean_motion_ddot": 0,
        "tle_line1": "1 34121U 93036KS  25355.67043111  .00001559  00000+0  98028-3 0  9994",
        "tle_line2": "2 34121  73.9924  81.8660 0240866 285.4458 190.3190 13.91959827852493"
      },
      "geometry": {
        "type": "Point",
        "coordinates": [
          -172.4336683659997,
          73.32803033118395
        ]
      }
    },
    {
      "type": "Feature",
      "properties": {
        "norad_id": 34122,
        "name": "COSMOS 2251 DEB",
        "group": "cosmos-2251-debris",
        "lat": -52.216675585395485,
        "lon": 78.82226959110038,
        "alt_km": 644.3437812034508,
        "timestamp": "2025-12-22T04:03:39.562266+00:00",
        "meta_object_name": "COSMOS 2251 DEB",
        "meta_object_id": "1993-036KT",
        "meta_epoch": "2025-12-21T17:22:58.013184",
        "meta_mean_motion": 14.65142701,
        "meta_eccentricity": 0.0084863,
        "meta_inclination": 74.0362,
        "meta_ra_of_asc_node": 101.3477,
        "meta_arg_of_pericenter": 355.6333,
        "meta_mean_anomaly": 124.088,
        "meta_ephemeris_type": 0,
        "meta_classification_type": "U",
        "meta_norad_cat_id": 34122,
        "meta_element_set_no": 999,
        "meta_rev_at_epoch": 88816,
        "meta_bstar": 0.00076584,
        "meta_mean_motion_dot": 4.31e-05,
        "meta_mean_motion_ddot": 0,
        "tle_line1": "1 34122U 93036KT  25355.72428256  .00004310  00000+0  76584-3 0  9999",
        "tle_line2": "2 34122  74.0362 101.3477 0084863 355.6333 124.0880 14.65142701888161"
      },
      "geometry": {
        "type": "Point",
        "coordinates": [
          78.82226959110038,
          -52.216675585395485
        ]
      }
    },
    {
      "type": "Feature",
      "properties": {
        "norad_id": 34127,
        "name": "COSMOS 2251 DEB",
        "group": "cosmos-2251-debris",
        "lat": 20.768025244864898,
        "lon": -159.350541365109,
        "alt_km": 752.4563934192392,
        "timestamp": "2025-12-22T04:03:39.562276+00:00",
        "meta_object_name": "COSMOS 2251 DEB",
        "meta_object_id": "1993-036KY",
        "meta_epoch": "2025-12-21T04:06:31.490784",
        "meta_mean_motion": 14.31614218,
        "meta_eccentricity": 0.01148477,
        "meta_inclination": 74.1791,
        "meta_ra_of_asc_node": 28.6253,
        "meta_arg_of_pericenter": 226.9764,
        "meta_mean_anomaly": 191.0133,
        "meta_ephemeris_type": 0,
        "meta_classification_type": "U",
        "meta_norad_cat_id": 34127,
        "meta_element_set_no": 999,
        "meta_rev_at_epoch": 86892,
        "meta_bstar": 0.0010319829,
        "meta_mean_motion_dot": 2.93e-05,
        "meta_mean_motion_ddot": 0,
        "tle_line1": "1 34127U 93036KY  25355.17119781  .00002930  00000+0  10320-2 0  9994",
        "tle_line2": "2 34127  74.1791  28.6253 0114847 226.9764 191.0133 14.31614218868927"
      },
      "geometry": {
        "type": "Point",
        "coordinates": [
          -159.350541365109,
          20.768025244864898
        ]
      }
    },
    {
      "type": "Feature",
      "properties": {
        "norad_id": 34128,
        "name": "COSMOS 2251 DEB",
        "group": "cosmos-2251-debris",
        "lat": -30.11712320715987,
        "lon": 107.05719291189237,
        "alt_km": 585.9360975696609,
        "timestamp": "2025-12-22T04:03:39.562285+00:00",
        "meta_object_name": "COSMOS 2251 DEB",
        "meta_object_id": "1993-036KZ",
        "meta_epoch": "2025-12-21T05:24:07.903008",
        "meta_mean_motion": 15.01462235,
        "meta_eccentricity": 0.0025983,
        "meta_inclination": 73.9994,
        "meta_ra_of_asc_node": 279.402,
        "meta_arg_of_pericenter": 29.647,
        "meta_mean_anomaly": 120.66,
        "meta_ephemeris_type": 0,
        "meta_classification_type": "U",
        "meta_norad_cat_id": 34128,
        "meta_element_set_no": 999,
        "meta_rev_at_epoch": 89294,
        "meta_bstar": 0.0011489,
        "meta_mean_motion_dot": 0.00014946,
        "meta_mean_motion_ddot": 0,
        "tle_line1": "1 34128U 93036KZ  25355.22509147  .00014946  00000+0  11489-2 0  9997",
        "tle_line2": "2 34128  73.9994 279.4020 0025983  29.6470 120.6600 15.01462235892946"
      },
      "geometry": {
        "type": "Point",
        "coordinates": [
          107.05719291189237,
          -30.11712320715987
        ]
      }
    },
    {
      "type": "Feature",
      "properties": {
        "norad_id": 34129,
        "name": "COSMOS 2251 DEB",
        "group": "cosmos-2251-debris",
        "lat": -16.82250437686676,
        "lon": -43.89304056851903,
        "alt_km": 634.088474420354,
        "timestamp": "2025-12-22T04:03:39.562295+00:00",
        "meta_object_name": "COSMOS 2251 DEB",
        "meta_object_id": "1993-036LA",
        "meta_epoch": "2025-12-21T15:07:30.986400",
        "meta_mean_motion": 14.75880741,
        "meta_eccentricity": 0.0033363,
        "meta_inclination": 74.0352,
        "meta_ra_of_asc_node": 322.1267,
        "meta_arg_of_pericenter": 40.8181,
        "meta_mean_anomaly": 319.5482,
        "meta_ephemeris_type": 0,
        "meta_classification_type": "U",
        "meta_norad_cat_id": 34129,
        "meta_element_set_no": 999,
        "meta_rev_at_epoch": 61429,
        "meta_bstar": 0.0011381,
        "meta_mean_motion_dot": 7.862e-05,
        "meta_mean_motion_ddot": 0,
        "tle_line1": "1 34129U 93036LA  25355.63021975  .00007862  00000+0  11381-2 0  9991",
        "tle_line2": "2 34129  74.0352 322.1267 0033363  40.8181 319.5482 14.75880741614294"
      },
      "geometry": {
        "type": "Point",
        "coordinates": [
          -43.89304056851903,
          -16.82250437686676
        ]
      }
    },
    {
      "type": "Feature",
      "properties": {
        "norad_id": 34136,
        "name": "COSMOS 2251 DEB",
        "group": "cosmos-2251-debris",
        "lat": -69.1000849088784,
        "lon": -24.593055161258537,
        "alt_km": 680.8047353930306,
        "timestamp": "2025-12-22T04:03:39.562305+00:00",
        "meta_object_name": "COSMOS 2251 DEB",
        "meta_object_id": "1993-036LH",
        "meta_epoch": "2025-12-21T09:01:35.898816",
        "meta_mean_motion": 14.8013063,
        "meta_eccentricity": 0.00851993,
        "meta_inclination": 74.0198,
        "meta_ra_of_asc_node": 25.5991,
        "meta_arg_of_pericenter": 146.2238,
        "meta_mean_anomaly": 232.5672,
        "meta_ephemeris_type": 0,
        "meta_classification_type": "U",
        "meta_norad_cat_id": 34136,
        "meta_element_set_no": 999,
        "meta_rev_at_epoch": 90138,
        "meta_bstar": 0.00027677826,
        "meta_mean_motion_dot": 2.198e-05,
        "meta_mean_motion_ddot": 0,
        "tle_line1": "1 34136U 93036LH  25355.37610994  .00002198  00000+0  27678-3 0  9999",
        "tle_line2": "2 34136  74.0198  25.5991 0085199 146.2238 232.5672 14.80130630901381"
      },
      "geometry": {
        "type": "Point",
        "coordinates": [
          -24.593055161258537,
          -69.1000849088784
        ]
      }
    },
    {
      "type": "Feature",
      "properties": {
        "norad_id": 34139,
        "name": "COSMOS 2251 DEB",
        "group": "cosmos-2251-debris",
        "lat": 12.342036545176802,
        "lon": -120.3181505958423,
        "alt_km": 685.0488894594519,
        "timestamp": "2025-12-22T04:03:39.562315+00:00",
        "meta_object_name": "COSMOS 2251 DEB",
        "meta_object_id": "1993-036LL",
        "meta_epoch": "2025-12-21T16:46:12.603072",
        "meta_mean_motion": 14.59167796,
        "meta_eccentricity": 0.0042519,
        "meta_inclination": 74.0299,
        "meta_ra_of_asc_node": 236.9859,
        "meta_arg_of_pericenter": 306.6306,
        "meta_mean_anomaly": 115.6086,
        "meta_ephemeris_type": 0,
        "meta_classification_type": "U",
        "meta_norad_cat_id": 34139,
        "meta_element_set_no": 999,
        "meta_rev_at_epoch": 88280,
        "meta_bstar": 0.00094458,
        "meta_mean_motion_dot": 4.48e-05,
        "meta_mean_motion_ddot": 0,
        "tle_line1": "1 34139U 93036LL  25355.69875698  .00004480  00000+0  94458-3 0  9997",
        "tle_line2": "2 34139  74.0299 236.9859 0042519 306.6306 115.6086 14.59167796882808"
      },
      "geometry": {
        "type": "Point",
        "coordinates": [
          -120.3181505958423,
          12.342036545176802
        ]
      }
    }
  ]
}